OBJECT_NAME,OBJECT_ID,EPOCH,MEAN_MOTION,ECCENTRICITY,INCLINATION,RA_OF_ASC_NODE,ARG_OF_PERICENTER,MEAN_ANOMALY,EPHEMERIS_TYPE,CLASSIFICATION_TYPE,NORAD_CAT_ID,ELEMENT_SET_NO,REV_AT_EPOCH,BSTAR,MEAN_MOTION_DOT,MEAN_MOTION_DDOT
STARLINK-35356,2025-221P,2026-06-09T07:29:23.770752,15.30164185,.00013879,53.1595,22.5924,78.9362,281.1795,0,U,65836,999,3876,.33946112E-3,.9697E-4,0
STARLINK-35314,2025-221Q,2026-06-09T07:53:38.025312,15.34405638,.00008483,53.1607,21.9919,69.1518,290.9576,0,U,65837,999,3877,.53301849E-3,.17678E-3,0
STARLINK-35324,2025-221R,2026-06-08T21:46:56.995104,15.30174317,.00011176,53.1595,25.0463,98.1316,261.9811,0,U,65838,999,3869,.6534926E-3,.1903E-3,0
STARLINK-35102,2025-221S,2026-06-09T08:11:48.725952,15.34412740,.00012648,53.1607,22.0695,85.3845,274.7302,0,U,65839,999,3877,.37411089E-3,.1229E-3,0
STARLINK-35364,2025-221T,2026-06-08T21:48:26.511552,15.34419805,.00012829,53.1591,23.6386,84.7884,275.3265,0,U,65840,999,3871,.91647281E-3,.30735E-3,0
STARLINK-35298,2025-221V,2026-06-09T07:41:30.906240,15.34412790,.00010955,53.1606,21.9372,95.6259,264.4869,0,U,65842,999,3877,.56951895E-3,.18922E-3,0
STARLINK-35301,2025-221W,2026-06-09T07:26:21.322464,15.34422979,.00010761,53.1599,21.8688,94.4600,265.6526,0,U,65843,999,3877,.52724161E-3,.17492E-3,0
STARLINK-35148,2025-221X,2026-06-09T07:23:20.158944,15.34420894,.00010956,53.1597,21.8601,72.4992,287.6130,0,U,65844,999,3877,.7314526E-3,.24434E-3,0
STARLINK-35302,2025-221Y,2026-06-08T21:54:30.152736,15.34419142,.0000874,53.1595,23.6605,81.0570,279.0531,0,U,65845,999,3871,.89078512E-3,.29858E-3,0
STARLINK-35290,2025-221Z,2026-06-09T08:05:45.361248,15.34413575,.00013466,53.1599,22.0400,74.3376,285.7775,0,U,65846,999,3877,.66505767E-3,.2217E-3,0
STARLINK-35262,2025-221AA,2026-06-08T21:54:34.666272,15.30213779,.0001092,53.1592,25.0772,92.5387,267.5739,0,U,65847,999,4004,.74098346E-3,.2166E-3,0
STARLINK-35308,2025-221AB,2026-06-09T07:38:29.075712,15.34413707,.00011953,53.1607,21.9201,81.9100,278.2038,0,U,65848,999,4012,.77545041E-3,.25926E-3,0
STARLINK-35231,2025-221AC,2026-06-08T21:59:07.979712,15.30214090,.00011773,53.1588,25.0959,88.6509,271.4627,0,U,65849,999,4004,.77368778E-3,.22635E-3,0
STARLINK-35252,2025-221AD,2026-06-08T21:50:02.108832,15.30138155,.00015218,53.1587,25.0570,68.3111,291.8051,0,U,65850,999,4004,-.44878754E-3,-.13602E-3,0
STARLINK-35208,2025-223A,2026-06-09T12:01:33.115008,15.34430073,.00013904,53.1596,226.9290,61.8963,298.2180,0,U,65854,999,3827,.78227139E-3,.26172E-3,0
STARLINK-35200,2025-223B,2026-06-09T10:44:29.134752,15.30206110,.00012687,53.1604,228.0074,80.0247,280.0897,0,U,65855,999,3825,.37973067E-3,.10906E-3,0
STARLINK-35459,2025-223C,2026-06-09T11:55:29.890272,15.34421314,.00014422,53.1586,226.9030,102.8540,257.2623,0,U,65856,999,3827,.52794308E-3,.17515E-3,0
STARLINK-35489,2025-223D,2026-06-09T10:58:02.070624,15.34476859,.0001516,53.1591,227.3614,94.8162,265.3014,0,U,65857,999,3826,.16528083E-2,.56022E-3,0
STARLINK-35199,2025-223E,2026-06-09T11:57:15.463296,15.30215263,.00011446,53.1588,227.6148,110.1512,249.9612,0,U,65858,999,3826,.40143255E-3,.11554E-3,0
STARLINK-35408,2025-223F,2026-06-09T11:07:08.783040,15.34400009,.00013113,53.1590,227.4035,83.4162,276.6990,0,U,65859,999,3826,.53573061E-3,.17767E-3,0
STARLINK-35303,2025-223G,2026-06-09T11:01:05.482272,15.34410487,.00012643,53.1591,227.3733,86.0164,274.0983,0,U,65860,999,3826,.66488308E-3,.22162E-3,0
STARLINK-35258,2025-223H,2026-06-09T12:04:35.349024,15.34402793,.00013151,53.1596,226.9371,70.4683,289.6461,0,U,65861,999,3827,.35202644E-3,.11537E-3,0
STARLINK-35386,2025-223J,2026-06-09T11:43:30.336384,15.34428887,.00015437,53.1584,227.5530,63.1856,296.9305,0,U,65862,999,3826,.91543817E-3,.30709E-3,0
STARLINK-35469,2025-223K,2026-06-09T10:42:54.774720,15.34418870,.00013334,53.1592,227.2979,77.5038,282.6114,0,U,65863,999,3826,.60774997E-3,.20225E-3,0
STARLINK-35471,2025-223L,2026-06-09T08:38:31.454592,15.30212499,.00017944,53.1575,228.1731,53.3787,306.7379,0,U,65864,999,3824,.50751918E-3,.14708E-3,0
STARLINK-35475,2025-223M,2026-06-09T12:10:40.497024,15.34385745,.00011165,53.1586,226.9616,78.8137,281.2991,0,U,65865,999,3827,.43698316E-3,.1441E-3,0
STARLINK-35312,2025-223N,2026-06-09T10:52:00.186816,15.34400026,.00009691,53.1595,227.3318,81.7502,278.3611,0,U,65866,999,3826,.51982242E-3,.17227E-3,0
STARLINK-35456,2025-223P,2026-06-09T11:58:46.833024,15.30202155,.00012903,53.1581,227.6170,118.6300,241.4831,0,U,65867,999,3826,.49722425E-3,.14397E-3,0
STARLINK-35450,2025-223Q,2026-06-09T12:13:40.635840,15.34437122,.00014879,53.1593,226.9786,62.8749,297.2405,0,U,65868,999,3827,.11411048E-2,.38421E-3,0
STARLINK-35441,2025-223R,2026-06-09T11:04:07.334400,15.34400638,.00013633,53.1593,227.3881,81.0574,279.0583,0,U,65869,999,3826,.57740602E-3,.19183E-3,0
