STARLINK-35356          
1 65836U 25221P   26160.31208068  .00009697  00000+0  33946-3 0  9991
2 65836  53.1595  22.5924 0001387  78.9362 281.1795 15.30164185 38767
STARLINK-35314          
1 65837U 25221Q   26160.32891233  .00017678  00000+0  53302-3 0  9991
2 65837  53.1607  21.9919 0000848  69.1518 290.9576 15.34405638 38776
STARLINK-35324          
1 65838U 25221R   26159.90760411  .00019030  00000+0  65349-3 0  9995
2 65838  53.1595  25.0463 0001117  98.1316 261.9811 15.30174317 38694
STARLINK-35102          
1 65839U 25221S   26160.34153618  .00012290  00000+0  37411-3 0  9991
2 65839  53.1607  22.0695 0001264  85.3845 274.7302 15.34412740 38776
STARLINK-35364          
1 65840U 25221T   26159.90864018  .00030735  00000+0  91647-3 0  9991
2 65840  53.1591  23.6386 0001282  84.7884 275.3265 15.34419805 38718
STARLINK-35298          
1 65842U 25221V   26160.32049660  .00018922  00000+0  56952-3 0  9993
2 65842  53.1606  21.9372 0001095  95.6259 264.4869 15.34412790 38773
STARLINK-35301          
1 65843U 25221W   26160.30996901  .00017492  00000+0  52724-3 0  9995
2 65843  53.1599  21.8688 0001076  94.4600 265.6526 15.34422979 38773
STARLINK-35148          
1 65844U 25221X   26160.30787221  .00024434  00000+0  73145-3 0  9993
2 65844  53.1597  21.8601 0001095  72.4992 287.6130 15.34420894 38777
STARLINK-35302          
1 65845U 25221Y   26159.91284899  .00029858  00000+0  89079-3 0  9990
2 65845  53.1595  23.6605 0000874  81.0570 279.0531 15.34419142 38710
STARLINK-35290          
1 65846U 25221Z   26160.33733057  .00022170  00000+0  66506-3 0  9994
2 65846  53.1599  22.0400 0001346  74.3376 285.7775 15.34413575 38779
STARLINK-35262          
1 65847U 25221AA  26159.91290123  .00021660  00000+0  74098-3 0  9997
2 65847  53.1592  25.0772 0001092  92.5387 267.5739 15.30213779 40041
STARLINK-35308          
1 65848U 25221AB  26160.31839208  .00025926  00000+0  77545-3 0  9996
2 65848  53.1607  21.9201 0001195  81.9100 278.2038 15.34413707 40127
STARLINK-35231          
1 65849U 25221AC  26159.91606458  .00022635  00000+0  77369-3 0  9998
2 65849  53.1588  25.0959 0001177  88.6509 271.4627 15.30214090 40048
STARLINK-35252          
1 65850U 25221AD  26159.90974663 -.00013602  00000+0 -44879-3 0  9991
2 65850  53.1587  25.0570 0001521  68.3111 291.8051 15.30138155 40049
STARLINK-35208          
1 65854U 25223A   26160.50107772  .00026172  00000+0  78227-3 0  9992
2 65854  53.1596 226.9290 0001390  61.8963 298.2180 15.34430073 38275
STARLINK-35200          
1 65855U 25223B   26160.44755943  .00010906  00000+0  37973-3 0  9996
2 65855  53.1604 228.0074 0001268  80.0247 280.0897 15.30206110 38252
STARLINK-35459          
1 65856U 25223C   26160.49687373  .00017515  00000+0  52794-3 0  9994
2 65856  53.1586 226.9030 0001442 102.8540 257.2623 15.34421314 38278
STARLINK-35489          
1 65857U 25223D   26160.45696841  .00056022  00000+0  16528-2 0  9991
2 65857  53.1591 227.3614 0001516  94.8162 265.3014 15.34476859 38267
STARLINK-35199          
1 65858U 25223E   26160.49809564  .00011554  00000+0  40143-3 0  9996
2 65858  53.1588 227.6148 0001144 110.1512 249.9612 15.30215263 38265
STARLINK-35408          
1 65859U 25223F   26160.46329610  .00017767  00000+0  53573-3 0  9996
2 65859  53.1590 227.4035 0001311  83.4162 276.6990 15.34400009 38265
STARLINK-35303          
1 65860U 25223G   26160.45909123  .00022162  00000+0  66488-3 0  9994
2 65860  53.1591 227.3733 0001264  86.0164 274.0983 15.34410487 38265
STARLINK-35258          
1 65861U 25223H   26160.50318691  .00011537  00000+0  35203-3 0  9990
2 65861  53.1596 226.9371 0001315  70.4683 289.6461 15.34402793 38279
STARLINK-35386          
1 65862U 25223J   26160.48854556  .00030709  00000+0  91544-3 0  9995
2 65862  53.1584 227.5530 0001543  63.1856 296.9305 15.34428887 38264
STARLINK-35469          
1 65863U 25223K   26160.44646730  .00020225  00000+0  60775-3 0  9999
2 65863  53.1592 227.2979 0001333  77.5038 282.6114 15.34418870 38267
STARLINK-35471          
1 65864U 25223L   26160.36008628  .00014708  00000+0  50752-3 0  9992
2 65864  53.1575 228.1731 0001794  53.3787 306.7379 15.30212499 38243
STARLINK-35475          
1 65865U 25223M   26160.50741316  .00014410  00000+0  43698-3 0  9998
2 65865  53.1586 226.9616 0001116  78.8137 281.2991 15.34385745 38272
STARLINK-35312          
1 65866U 25223N   26160.45277994  .00017227  00000+0  51982-3 0  9993
2 65866  53.1595 227.3318 0000969  81.7502 278.3611 15.34400026 38266
STARLINK-35456          
1 65867U 25223P   26160.49915316  .00014397  00000+0  49722-3 0  9999
2 65867  53.1581 227.6170 0001290 118.6300 241.4831 15.30202155 38269
STARLINK-35450          
1 65868U 25223Q   26160.50949810  .00038421  00000+0  11411-2 0  9995
2 65868  53.1593 226.9786 0001487  62.8749 297.2405 15.34437122 38278
STARLINK-35441          
1 65869U 25223R   26160.46119600  .00019183  00000+0  57741-3 0  9998
2 65869  53.1593 227.3881 0001363  81.0574 279.0583 15.34400638 38268
